IRIDIUM 26              
1 24903U 97043A   25322.19336654  .00000613  00000+0  19925-3 0  9990
2 24903  86.3979  45.8763 0001945  92.6371 267.5049 14.37300114478862
IRIDIUM 22              
1 24907U 97043E   25322.18146012  .00000549  00000+0  18213-3 0  9997
2 24907  86.3980  49.5532 0002047  97.3698 262.7731 14.36096919478871
DUMMY MASS 1            
1 24925U 97048A   25321.70781006  .00000767  00000+0  82262-4 0  9995
2 24925  86.3352  64.2873 0005502 341.7306  18.3721 14.87150708527947
DUMMY MASS 2            
1 24926U 97048B   25321.76289130  .00000755  00000+0  81417-4 0  9991
2 24926  86.3350  65.8981 0006688 352.3862   7.7260 14.86901365527722
IRIDIUM 29              
1 24944U 97051A   25321.80050072  .00000811  00000+0  26925-3 0  9996
2 24944  86.3945  79.4136 0002172  97.3512 262.7932 14.36630240475320
IRIDIUM 33              
1 24946U 97051C   25321.74338618  .00000607  00000+0  20640-3 0  9997
2 24946  86.3862  78.7125 0006052 304.8345  55.2281 14.35011369474764
IRIDIUM 28              
1 24948U 97051E   25321.74671973  .00000757  00000+0  24645-3 0  9998
2 24948  86.3953  76.8632 0001597  85.3818 274.7562 14.37531736475908
IRIDIUM 36              
1 24967U 97056C   25321.96443233  .00000698  00000+0  22544-3 0  9994
2 24967  86.3938 108.4028 0001789  93.8717 266.2685 14.37751805474315
